GLOBALSTAR M024         
1 25883U 99043A   24185.92724694 -.00000037  00000+0  98620-3 0  9992
2 25883  52.0016  86.4118 0000965 275.7369 167.4175 11.10156567 76185
GLOBALSTAR M027         
1 25884U 99043B   24185.66074334 -.00000086  00000+0 -85988-3 0  9991
2 25884  52.0178 155.1212 0020915 148.5313 211.6735 11.04368935102739
GLOBALSTAR M054         
1 25885U 99043C   24186.16510394  .00000004  00000+0  19262-2 0  9998
2 25885  52.0165 339.7023 0004243 309.8091 220.5873 11.39205714 79713
GLOBALSTAR M053         
1 25886U 99043D   24185.54203635 -.00000043  00000+0  75953-3 0  9991
2 25886  51.9978 268.9491 0003905 205.3491 255.3358 11.27656447 80114
GLOBALSTAR M058         
1 25907U 99049A   24185.82130787 -.00000133  00000+0 -66019-3 0  9993
2 25907  51.9963 319.3902 0001651 335.6600  24.4157 11.93180740111168
GLOBALSTAR M050         
1 25908U 99049B   24185.89277854 -.00000007  00000+0  91262-3 0  9995
2 25908  52.0006 352.8950 0009769  61.2920  99.4128 12.07435442106116
GLOBALSTAR M033         
1 25909U 99049C   24185.90559346 -.00000109  00000+0 -16762-3 0  9993
2 25909  51.9900 248.7530 0012443 269.0924  90.8498 12.20273215493229
GLOBALSTAR M055         
1 25910U 99049D   24186.20642328 -.00000071  00000+0  19785-3 0  9997
2 25910  52.0016 275.5878 0007627 129.7473 230.4052 12.29403607125705
